ONEWEB-0283             
1 49001U 21060AL  24348.71537636  .00000068  00000+0  14479-3 0  9993
2 49001  87.9080 338.4642 0001718  79.2835 280.8489 13.16594232168504
ONEWEB-0284             
1 49002U 21060AM  24347.94906537  .00000085  00000+0  18778-3 0  9993
2 49002  87.9074 338.5899 0001750  94.2868 265.8463 13.16593626168378
ONEWEB-0285             
1 49075U 21075A   24348.55173759  .00000153  00000+0  39062-3 0  9994
2 49075  87.8881 100.3102 0001501 106.5505 253.5789 13.12442364163967
ONEWEB-0286             
1 49076U 21075B   24348.59943744  .00000153  00000+0  38880-3 0  9995
2 49076  87.8878 100.2976 0001887 105.7917 254.3419 13.12444435162348
ONEWEB-0287             
1 49077U 21075C   24349.08503275 -.00000066  00000+0 -20235-3 0  9992
2 49077  87.9095 115.4524 0001718 108.4794 251.6524 13.17651115162150
ONEWEB-0288             
1 49078U 21075D   24347.74704665 -.00000155  00000+0 -46523-3 0  9997
2 49078  87.8877 100.4704 0001615 109.8652 250.2651 13.12442765162853
ONEWEB-0290             
1 49080U 21075F   24349.32465330  .00000080  00000+0  17212-3 0  9997
2 49080  87.9097 115.3932 0001017 122.4633 237.6596 13.17647033162188
